[{"OBJECT_NAME":"STARLINK-3911","OBJECT_ID":"2022-051AJ","EPOCH":"2026-03-09T10:42:18.694944","MEAN_MOTION":15.08835724,"ECCENTRICITY":0.0001337,"INCLINATION":53.2174,"RA_OF_ASC_NODE":120.2157,"ARG_OF_PERICENTER":96.0731,"MEAN_ANOMALY":264.0413,"EPHEMERIS_TYPE":0,"CLASSIFICATION_TYPE":"U","NORAD_CAT_ID":52565,"ELEMENT_SET_NO":999,"REV_AT_EPOCH":21154,"BSTAR":-3.2442472e-5,"MEAN_MOTION_DOT":-8.04e-6,"MEAN_MOTION_DDOT":0},{"OBJECT_NAME":"FENGYUN 1C DEB","OBJECT_ID":"1999-025BJR","EPOCH":"2026-03-09T02:36:25.741728","MEAN_MOTION":14.62811644,"ECCENTRICITY":0.02114789,"INCLINATION":99.2365,"RA_OF_ASC_NODE":306.6158,"ARG_OF_PERICENTER":322.0995,"MEAN_ANOMALY":36.5474,"EPHEMERIS_TYPE":0,"CLASSIFICATION_TYPE":"U","NORAD_CAT_ID":31187,"ELEMENT_SET_NO":999,"REV_AT_EPOCH":70361,"BSTAR":0.0035749119,"MEAN_MOTION_DOT":0.00025231,"MEAN_MOTION_DDOT":0}]
